{"generatedAt":"2026-05-05T08:19:47.084492Z","satellites":[{"name":"STARLINK-37432","tle1":"1 68896U 26097B   26124.75002315 -.02340714  15605-2 -54585-2 0  9990","tle2":"2 68896  97.2873 319.6733 0001672  93.2226 133.0034 15.97208012  1940"}]}