{
  "norad_id": 68896,
  "name": "STARLINK-37432",
  "history": [
    {
      "epoch": "2026-05-04T18:00:02.000160Z",
      "apogee_km": 283.28268242674494,
      "perigee_km": 281.05547607384415,
      "latitude_deg": -46.03539804536702,
      "longitude_deg": -0.5455893597672264,
      "height_km": 300.83311639949216,
      "semi_major_axis_km": 6660.306079250295,
      "eccentricity": 0.0001672,
      "inclination_deg": 97.2873,
      "raan_deg": 319.6733,
      "arg_perigee_deg": 93.2226,
      "mean_anomaly_deg": 133.0034,
      "mean_motion_rev_day": 15.97208012
    }
  ]
}